{"type":"FeatureCollection","source":"海しるAPI depth-contour v2; government is not responsible for this app","bbox":[135.792,35.592,135.88,35.663],"features":[{"type":"Feature","properties":{"depth_m":20,"source":"海しるAPI・等深線(v2)","objectid":7051},"geometry":{"type":"LineString","coordinates":[[135.850717,35.592],[135.852,35.595606],[135.852239,35.596],[135.852473,35.598],[135.852308,35.6],[135.852,35.600323],[135.85,35.601078],[135.848,35.600396],[135.84653,35.6],[135.846,35.599804],[135.844,35.600231],[135.84232,35.602],[135.842349,35.604],[135.842,35.60499],[135.840601,35.606],[135.84,35.606121],[135.839595,35.606],[135.838,35.605237],[135.836637,35.604],[135.836,35.603326],[135.834877,35.602],[135.834,35.600612],[135.833458,35.6],[135.832,35.598658],[135.830855,35.6],[135.830307,35.602],[135.83,35.602592],[135.829084,35.604],[135.828,35.605185],[135.827175,35.606],[135.826,35.606979],[135.825287,35.608],[135.824614,35.61],[135.825197,35.612],[135.826,35.612482],[135.828,35.61332],[135.829869,35.614],[135.832,35.615691],[135.832609,35.616],[135.834,35.617069],[135.835366,35.618],[135.836,35.619425],[135.836138,35.62],[135.836,35.620222],[135.834,35.620985],[135.832,35.621595],[135.828,35.622369],[135.826,35.622284],[135.824,35.622377],[135.822,35.6232],[135.821638,35.624],[135.821965,35.626],[135.821474,35.628],[135.821306,35.63],[135.822,35.631302],[135.822497,35.632],[135.824,35.633002],[135.826,35.633276],[135.826979,35.634],[135.824,35.635752],[135.823283,35.636],[135.822,35.636216],[135.82,35.634291],[135.819508,35.634],[135.818,35.632899],[135.816788,35.632],[135.816,35.631329],[135.814066,35.63],[135.814,35.629888],[135.812156,35.632],[135.812,35.632304],[135.81,35.633133],[135.809259,35.632],[135.808,35.63038],[135.807772,35.63],[135.806,35.628925],[135.804,35.62803],[135.802,35.629381],[135.801323,35.63],[135.800901,35.632],[135.801196,35.634],[135.801894,35.636],[135.801428,35.638],[135.802,35.638816],[135.803111,35.64],[135.804,35.640751],[135.806,35.641128],[135.808,35.641373],[135.81,35.641931],[135.810047,35.642],[135.810088,35.644],[135.812,35.645287],[135.814,35.64546],[135.816,35.645252],[135.818,35.645907],[135.818725,35.646],[135.82,35.646275],[135.822,35.646602],[135.824,35.645823],[135.826,35.645242],[135.827373,35.644],[135.827849,35.642],[135.828,35.641896],[135.83,35.641376],[135.832,35.640791],[135.833393,35.64],[135.834,35.639714],[135.836,35.639179],[135.838,35.639105],[135.84,35.639408],[135.842,35.639273],[135.844,35.638855],[135.846,35.638308],[135.846402,35.638],[135.848492,35.636],[135.84856,35.634],[135.848502,35.632],[135.848933,35.63],[135.85,35.628798],[135.851713,35.628],[135.852,35.627958],[135.854,35.628187],[135.854568,35.628],[135.856,35.627676],[135.858,35.626472],[135.858562,35.626],[135.86,35.625],[135.860933,35.624],[135.862,35.622237],[135.862203,35.622],[135.862154,35.62],[135.862,35.617964],[135.862932,35.616],[135.864,35.615248],[135.868,35.614718],[135.87,35.614376],[135.872,35.614278],[135.874,35.614626],[135.876,35.615401],[135.87629,35.616],[135.878,35.617368],[135.879175,35.618],[135.88,35.618547]]}},{"type":"Feature","properties":{"depth_m":20,"source":"海しるAPI・等深線(v2)","objectid":7364},"geometry":{"type":"LineString","coordinates":[[135.792,35.60461],[135.7928,35.604],[135.793531,35.602],[135.794,35.600477],[135.794239,35.6],[135.794,35.599328],[135.792,35.598469]]}},{"type":"Feature","properties":{"depth_m":50,"source":"海しるAPI・等深線(v2)","objectid":4789},"geometry":{"type":"LineString","coordinates":[[135.846332,35.592],[135.846,35.593733],[135.844,35.592892],[135.842939,35.594],[135.842849,35.596],[135.842,35.59638],[135.84,35.598144],[135.838,35.599377],[135.837026,35.598],[135.836,35.597142],[135.835373,35.596],[135.834,35.594417],[135.832,35.594322],[135.828,35.597896],[135.826519,35.6],[135.825286,35.602],[135.8245,35.604],[135.824,35.605006],[135.82332,35.606],[135.822,35.608522],[135.821143,35.61],[135.820889,35.612],[135.821549,35.614],[135.822,35.614512],[135.824,35.615189],[135.826,35.615634],[135.826732,35.616],[135.828,35.617395],[135.828386,35.618],[135.828,35.619686],[135.827805,35.62],[135.826,35.620228],[135.824,35.620345],[135.822,35.620314],[135.82,35.620503],[135.818373,35.622],[135.818864,35.624],[135.818886,35.626],[135.818179,35.628],[135.818085,35.63],[135.818,35.630055],[135.816,35.628026],[135.814259,35.626],[135.814,35.625755],[135.812,35.625756],[135.811697,35.626],[135.810467,35.628],[135.81,35.628337],[135.809494,35.628],[135.808,35.626259],[135.807867,35.626],[135.808,35.624981],[135.808264,35.624],[135.808,35.623588],[135.806,35.622628],[135.804,35.624095],[135.802,35.626267],[135.80025,35.628],[135.8,35.628206],[135.798602,35.63],[135.798,35.631523],[135.797773,35.632],[135.798043,35.634],[135.799459,35.636],[135.799718,35.638],[135.8,35.638368],[135.800854,35.64],[135.802,35.641343],[135.802882,35.642],[135.804,35.643317],[135.804957,35.644],[135.806,35.644879],[135.808,35.645835],[135.81,35.64731],[135.811764,35.648],[135.814,35.649177],[135.816,35.650133],[135.818,35.650674],[135.82,35.650636],[135.822,35.650417],[135.826,35.649205],[135.828,35.64882],[135.83,35.648517],[135.832,35.648002],[135.834,35.647823],[135.838,35.647142],[135.84,35.646687],[135.842,35.64579],[135.844,35.644718],[135.84505,35.644],[135.846,35.643457],[135.847524,35.642],[135.85,35.640022],[135.852,35.639776],[135.854,35.63892],[135.857204,35.638],[135.858,35.637847],[135.86,35.637295],[135.862,35.637028],[135.866,35.637461],[135.867326,35.638],[135.867876,35.64],[135.868,35.640096],[135.868279,35.64],[135.87,35.639049],[135.872,35.640369],[135.874067,35.642],[135.876,35.643705],[135.876235,35.644],[135.877039,35.646],[135.878,35.647089],[135.879764,35.648],[135.88,35.648281]]}},{"type":"Feature","properties":{"depth_m":50,"source":"海しるAPI・等深線(v2)","objectid":5000},"geometry":{"type":"LineString","coordinates":[[135.8,35.609079],[135.802,35.609667],[135.804136,35.608],[135.804999,35.606],[135.804,35.604326],[135.802,35.604233],[135.80012,35.606],[135.8,35.606309],[135.799053,35.608],[135.8,35.609079]]}},{"type":"Feature","properties":{"depth_m":50,"source":"海しるAPI・等深線(v2)","objectid":5001},"geometry":{"type":"LineString","coordinates":[[135.792,35.607154],[135.794,35.6067],[135.795118,35.606],[135.796,35.604255],[135.79619,35.604],[135.798267,35.602],[135.799718,35.6],[135.8,35.598724],[135.800271,35.598],[135.8,35.597187],[135.799498,35.596],[135.798,35.594678],[135.796,35.594413],[135.794,35.59461],[135.792,35.595125]]}},{"type":"Feature","properties":{"depth_m":50,"source":"海しるAPI・等深線(v2)","objectid":5006},"geometry":{"type":"LineString","coordinates":[[135.816,35.603238],[135.816784,35.602],[135.816,35.601224],[135.814742,35.602],[135.816,35.603238]]}},{"type":"Feature","properties":{"depth_m":50,"source":"海しるAPI・等深線(v2)","objectid":5012},"geometry":{"type":"LineString","coordinates":[[135.82,35.599665],[135.822,35.598453],[135.822257,35.598],[135.822,35.597603],[135.82,35.597199],[135.819271,35.598],[135.82,35.599665]]}}]}